{"signature":{"version":"1.3","source":"NASA/JPL Small-Body Database (SBDB) API"},"orbit":{"sb_used":null,"pe_used":"DE441","equinox":"J2000","rms":null,"t_jup":"5.233","moid_jup":"24.4104","n_dop_obs_used":null,"moid":"28.649","not_valid_after":null,"producer":"R.S. Park","model_pars":[],"two_body":null,"epoch":"2457588.5","soln_date":null,"last_obs":"2016-07-19","n_obs_used":7212,"source":"JPL","comment":null,"orbit_id":"1","condition_code":null,"n_del_obs_used":null,"first_obs":"1930-03-29","data_arc":"31524","elements":[{"sigma":null,"label":"e","title":"eccentricity","name":"e","value":".2518378778576892","units":null},{"title":"semi-major axis","name":"a","units":"au","value":"39.58862938517124","sigma":null,"label":"a"},{"sigma":null,"label":"q","name":"q","title":"perihelion distance","value":"29.61871297351516","units":"au"},{"units":"deg","value":"17.14771140999114","title":"inclination; angle with respect to x-y ecliptic plane","name":"i","label":"i","sigma":null},{"label":"node","sigma":null,"units":"deg","value":"110.2923840543057","name":"om","title":"longitude of the ascending node"},{"value":"113.7090015158565","units":"deg","title":"argument of perihelion","name":"w","label":"peri","sigma":null},{"label":"M","sigma":null,"units":"deg","value":"38.68366347318184","title":"mean anomaly","name":"ma"},{"sigma":null,"label":"tp","title":"time of perihelion passage","name":"tp","units":"TDB","value":"2447812.094159956090"},{"title":"sidereal orbital period","name":"per","value":"90981.71647718345","units":"d","sigma":null,"label":"period"},{"label":"n","sigma":null,"units":"deg/d","value":".003956838955553025","name":"n","title":"mean motion"},{"value":"49.55854579682732","units":"au","name":"ad","title":"aphelion distance","label":"Q","sigma":null}],"not_valid_before":null},"object":{"des":"134340","prefix":null,"shortname":"134340 Pluto","orbit_class":{"name":"TransNeptunian Object","code":"TNO"},"fullname":"134340 Pluto (1930 BM)","orbit_id":"1","kind":"an","spkid":"20134340","pha":false,"neo":false}}
